$$SOE
2461302.500000000, A.D. 2026-Sep-19 00:00:00.0000, 1.947736904832371E+08, 1.646238989896376E+08, -9.097851450572525E+07,
2461309.500000000, A.D. 2026-Sep-26 00:00:00.0000, 1.845853285404466E+08, 1.738529152723955E+08, -9.266511026188792E+07,
2461316.500000000, A.D. 2026-Oct-03 00:00:00.0000, 1.739416917102194E+08, 1.826530606840056E+08, -9.412312633431421E+07,
2461323.500000000, A.D. 2026-Oct-10 00:00:00.0000, 1.628654190650311E+08, 1.909988375293933E+08, -9.534701230547464E+07,
2461330.500000000, A.D. 2026-Oct-17 00:00:00.0000, 1.513808508167002E+08, 1.988657265487125E+08, -9.633184631507319E+07,
2461337.500000000, A.D. 2026-Oct-24 00:00:00.0000, 1.395139716838271E+08, 2.062303220226463E+08, -9.707337473527746E+07,
2461344.500000000, A.D. 2026-Oct-31 00:00:00.0000, 1.272923406010151E+08, 2.130704650028674E+08, -9.756804903881150E+07,
2461351.500000000, A.D. 2026-Nov-07 00:00:00.0000, 1.147450071165776E+08, 2.193653732124543E+08, -9.781305933942780E+07,
2461358.500000000, A.D. 2026-Nov-14 00:00:00.0000, 1.019024149111275E+08, 2.250957669255881E+08, -9.780636402114986E+07,
2461365.500000000, A.D. 2026-Nov-21 00:00:00.0000, 8.879629108149357E+07, 2.302439898991620E+08, -9.754671471567044E+07,
2461372.500000000, A.D. 2026-Nov-28 00:00:00.0000, 7.545952084683509E+07, 2.347941207665818E+08, -9.703367628908296E+07,
2461379.500000000, A.D. 2026-Dec-05 00:00:00.0000, 6.192601217949750E+07, 2.387320727511992E+08, -9.626764182056540E+07,
2461386.500000000, A.D. 2026-Dec-12 00:00:00.0000, 4.823055164919006E+07, 2.420456834062506E+08, -9.524984201365836E+07,
2461393.500000000, A.D. 2026-Dec-19 00:00:00.0000, 3.440865091794565E+07, 2.447247930977841E+08, -9.398234861928681E+07,
2461400.500000000, A.D. 2026-Dec-26 00:00:00.0000, 2.049638525472835E+07, 2.467613102315117E+08, -9.246807176994094E+07,
2461407.500000000, A.D. 2027-Jan-02 00:00:00.0000, 6.530226014421472E+06, 2.481492620854320E+08, -9.071075119677882E+07,
2461414.500000000, A.D. 2027-Jan-09 00:00:00.0000, -7.453131013883204E+06, 2.488848305312590E+08, -8.871494136295031E+07,
2461421.500000000, A.D. 2027-Jan-16 00:00:00.0000, -2.141693948332625E+07, 2.489663721489072E+08, -8.648599063843624E+07,
2461428.500000000, A.D. 2027-Jan-23 00:00:00.0000, -3.532457662801002E+07, 2.483944224366194E+08, -8.403001474477880E+07,
2461435.500000000, A.D. 2027-Jan-30 00:00:00.0000, -4.913971555415224E+07, 2.471716840640045E+08, -8.135386480392113E+07,
2461442.500000000, A.D. 2027-Feb-06 00:00:00.0000, -6.282649337444577E+07, 2.453029997551464E+08, -7.846509039928520E+07,
2461449.500000000, A.D. 2027-Feb-13 00:00:00.0000, -7.634967384147756E+07, 2.427953115170271E+08, -7.537189798153616E+07,
2461456.500000000, A.D. 2027-Feb-20 00:00:00.0000, -8.967480514603472E+07, 2.396576061509507E+08, -7.208310500569445E+07,
2461463.500000000, A.D. 2027-Feb-27 00:00:00.0000, -1.027683699280458E+08, 2.359008447478073E+08, -6.860809076098169E+07,
2461470.500000000, A.D. 2027-Mar-06 00:00:00.0000, -1.155979231326072E+08, 2.315378791854269E+08, -6.495674462485729E+07,
2461477.500000000, A.D. 2027-Mar-13 00:00:00.0000, -1.281322181568471E+08, 2.265833589541647E+08, -6.113941208272807E+07,
2461484.500000000, A.D. 2027-Mar-20 00:00:00.0000, -1.403413214605759E+08, 2.210536288609357E+08, -5.716683913025282E+07,
2461491.500000000, A.D. 2027-Mar-27 00:00:00.0000, -1.521967147137470E+08, 2.149666185226129E+08, -5.305011576260886E+07,
2461498.500000000, A.D. 2027-Apr-03 00:00:00.0000, -1.636713837846978E+08, 2.083417251137051E+08, -4.880061919866464E+07,
2461505.500000000, A.D. 2027-Apr-10 00:00:00.0000, -1.747398942390719E+08, 2.011996909226092E+08, -4.442995744045325E+07,
2461512.500000000, A.D. 2027-Apr-17 00:00:00.0000, -1.853784532733601E+08, 1.935624772187325E+08, -3.994991372777039E+07,
2461519.500000000, A.D. 2027-Apr-24 00:00:00.0000, -1.955649581508542E+08, 1.854531358408715E+08, -3.537239240833104E+07,
2461526.500000000, A.D. 2027-May-01 00:00:00.0000, -2.052790311702504E+08, 1.768956799372437E+08, -3.070936670182376E+07,
2461533.500000000, A.D. 2027-May-08 00:00:00.0000, -2.145020413518372E+08, 1.679149559158136E+08, -2.597282871883219E+07,
2461540.500000000, A.D. 2027-May-15 00:00:00.0000, -2.232171149746246E+08, 1.585365187605955E+08, -2.117474185316969E+07,
2461547.500000000, A.D. 2027-May-22 00:00:00.0000, -2.314091372857111E+08, 1.487865092128815E+08, -1.632699588980156E+07,
2461554.500000000, A.D. 2027-May-29 00:00:00.0000, -2.390647428555675E+08, 1.386915323116875E+08, -1.144136546313863E+07,
2461561.500000000, A.D. 2027-Jun-05 00:00:00.0000, -2.461722945817338E+08, 1.282785412282088E+08, -6.529471834155969E+06,
2461568.500000000, A.D. 2027-Jun-12 00:00:00.0000, -2.527218543088990E+08, 1.175747274990006E+08, -1.602747863292299E+06,
2461575.500000000, A.D. 2027-Jun-19 00:00:00.0000, -2.587051463776331E+08, 1.066074172824282E+08, 3.327593729640134E+06,
2461582.500000000, A.D. 2027-Jun-26 00:00:00.0000, -2.641155147924249E+08, 9.540397380165228E+07, 8.250588778078519E+06,
2461589.500000000, A.D. 2027-Jul-03 00:00:00.0000, -2.689478748332740E+08, 8.399170627883123E+07, 1.315554679078582E+07,
2461596.500000000, A.D. 2027-Jul-10 00:00:00.0000, -2.731986600046464E+08, 7.239778555280906E+07, 1.803207286439116E+07,
2461603.500000000, A.D. 2027-Jul-17 00:00:00.0000, -2.768657651765910E+08, 6.064916642303127E+07, 2.287008649391813E+07,
2461610.500000000, A.D. 2027-Jul-24 00:00:00.0000, -2.799484866028663E+08, 4.877251664688683E+07, 2.765983740099304E+07,
2461617.500000000, A.D. 2027-Jul-31 00:00:00.0000, -2.824474591883286E+08, 3.679415273520681E+07, 3.239191852030374E+07,
2461624.500000000, A.D. 2027-Aug-07 00:00:00.0000, -2.843645919273433E+08, 2.473998353639492E+07, 3.705727643069624E+07,
2461631.500000000, A.D. 2027-Aug-14 00:00:00.0000, -2.857030044742349E+08, 1.263546113405345E+07, 4.164721960589647E+07,
2461638.500000000, A.D. 2027-Aug-21 00:00:00.0000, -2.864669648316364E+08, 5.055354269689433E+05, 4.615342434716124E+07,
2461645.500000000, A.D. 2027-Aug-28 00:00:00.0000, -2.866618252599812E+08, -1.162538669822116E+07, 5.056793838142663E+07,
2461652.500000000, A.D. 2027-Sep-04 00:00:00.0000, -2.862939580373156E+08, -2.373347541662513E+07, 5.488318263399743E+07,
2461659.500000000, A.D. 2027-Sep-11 00:00:00.0000, -2.853706928454752E+08, -3.579550624247051E+07, 5.909195143692680E+07,
2461666.500000000, A.D. 2027-Sep-18 00:00:00.0000, -2.839002559744209E+08, -4.778888354137055E+07, 6.318741128571874E+07,
2461673.500000000, A.D. 2027-Sep-25 00:00:00.0000, -2.818917113803958E+08, -5.969165972427737E+07, 6.716309828374721E+07,
2461680.500000000, A.D. 2027-Oct-02 00:00:00.0000, -2.793549037450725E+08, -7.148255047958463E+07, 7.101291443092442E+07,
2461687.500000000, A.D. 2027-Oct-09 00:00:00.0000, -2.763004037081560E+08, -8.314094642726284E+07, 7.473112291715030E+07,
2461694.500000000, A.D. 2027-Oct-16 00:00:00.0000, -2.727394553682374E+08, -9.464692160581502E+07, 7.831234257060166E+07,
2461701.500000000, A.D. 2027-Oct-23 00:00:00.0000, -2.686839259009961E+08, -1.059812391303059E+08, 8.175154158436044E+07,
2461708.500000000, A.D. 2027-Oct-30 00:00:00.0000, -2.641462569820293E+08, -1.171253537283870E+08, 8.504403066784495E+07,
2461715.500000000, A.D. 2027-Nov-06 00:00:00.0000, -2.591394192025544E+08, -1.280614103320889E+08, 8.818545593748854E+07,
2461722.500000000, A.D. 2027-Nov-13 00:00:00.0000, -2.536768714623619E+08, -1.387722410971089E+08, 9.117179166335775E+07,
2461729.500000000, A.D. 2027-Nov-20 00:00:00.0000, -2.477725224212236E+08, -1.492413633173523E+08, 9.399933252473822E+07,
2461736.500000000, A.D. 2027-Nov-27 00:00:00.0000, -2.414406923573030E+08, -1.594529755296670E+08, 9.666468555858602E+07,
2461743.500000000, A.D. 2027-Dec-04 00:00:00.0000, -2.346960774007432E+08, -1.693919511306478E+08, 9.916476213832586E+07,
2461750.500000000, A.D. 2027-Dec-11 00:00:00.0000, -2.275537166206108E+08, -1.790438306898032E+08, 1.014967700200709E+08,
2461757.500000000, A.D. 2027-Dec-18 00:00:00.0000, -2.200289616097096E+08, -1.883948135069893E+08, 1.036582054629009E+08,
2461764.500000000, A.D. 2027-Dec-25 00:00:00.0000, -2.121374483307267E+08, -1.974317486084118E+08, 1.056468454651205E+08,
2461771.500000000, A.D. 2028-Jan-01 00:00:00.0000, -2.038950710914370E+08, -2.061421253388206E+08, 1.074607401632016E+08,
$$EOE